1 41882U 16077A   26091.49106126 -.00000365  00000-0  00000+0 0  9995
2 41882   2.1291  81.0472 0007314 135.8123 273.3578  1.00264626 34166
1 41882U 16077A   26091.76587771 -.00000364  00000-0  00000+0 0  9993
2 41882   2.1298  81.0435 0007303 135.6778  12.6943  1.00264519 34165
1 41882U 16077A   26091.76587771 -.00000364  00000-0  00000-0 0  9994
2 41882   2.1298  81.0435 0007303 135.6778  12.6943  1.00264519 34165
1 41882U 16077A   26092.27542480 -.00000362  00000-0  00000-0 0  9997
2 41882   2.1312  81.0381 0007261 135.5746 196.7293  1.00264334 34166
1 41882U 16077A   26092.56062193 -.00000361  00000-0  00000+0 0  9995
2 41882   2.1318  81.0363 0007246 135.4689 299.7816  1.00264207 34175
1 41882U 16077A   26092.56062193 -.00000361  00000-0  00000-0 0  9996
2 41882   2.1318  81.0363 0007246 135.4689 299.7816  1.00264207 34175
1 41882U 16077A   26093.70162883 -.00000357  00000-0  00000+0 0  9994
2 41882   2.1342  81.0393 0007883 139.0968 348.0849  1.00279465 34189
1 41882U 16077A   26093.84423572 -.00000357  00000-0  00000+0 0  9994
2 41882   2.1350  81.0359 0007946 139.8571  38.8093  1.00279218 34189
1 41882U 16077A   26093.91551281 -.00000357  00000-0  00000-0 0  9992
2 41882   2.1352  81.0357 0007951 139.8715  64.5269  1.00279155 34186
1 41882U 16077A   26093.98683240 -.00000357  00000-0  00000-0 0  9990
2 41882   2.1353  81.0352 0007947 139.8278  90.3181  1.00279080 34188
1 41882U 16077A   26094.62856480 -.00000355  00000-0  00000-0 0  9998
2 41882   2.1368  81.0295 0007898 139.5527 322.2724  1.00278809 34198
1 41882U 16077A   26094.84251661 -.00000355  00000-0  00000+0 0  9991
2 41882   2.1373  81.0263 0007899 139.4448  39.6229  1.00278741 34195
1 41882U 16077A   26094.91378392 -.00000355  00000-0  00000-0 0  9991
2 41882   2.1375  81.0256 0007902 139.4162  65.3806  1.00278713 34193
1 41882U 16077A   26095.27030332 -.00000355  00000-0  00000-0 0  9990
2 41882   2.1383  81.0216 0007889 139.2503 194.2574  1.00278500 34197
1 41882U 16077A   26095.58076534 -.00000354  00000-0  00000+0 0  9996
2 41882   2.1390  81.0186 0007867 139.1127 306.4784  1.00278392 34209
1 41882U 16077A   26095.62682711 -.00000354  00000-0  00000-0 0  9992
2 41882   2.1391  81.0180 0007864 139.1010 323.1197  1.00278388 34201
1 41882U 16077A   26095.84082716 -.00000354  00000-0  00000+0 0  9994
2 41882   2.1396  81.0153 0007866 139.0328  40.4471  1.00278307 34204
1 41882U 16077A   26095.91208581 -.00000354  00000-0  00000-0 0  9993
2 41882   2.1398  81.0149 0007870 139.0501  66.1553  1.00278272 34206
1 41882U 16077A   26096.06850343 -.00000354  00000-0  00000-0 0  9999
2 41882   2.1401  81.0137 0007873 138.9042 122.7699  1.00278118 34208
1 41882U 16077A   26096.91039115 -.00000354  00000-0  00000+0 0  9998
2 41882   2.1421  81.0037 0007850 138.7435  66.8704  1.00277806 34217
1 41882U 16077A   26096.91039115 -.00000354  00000-0  00000-0 0  9999
2 41882   2.1421  81.0037 0007850 138.7435  66.8704  1.00277806 34217
1 41882U 16077A   26097.26688863 -.00000354  00000-0  00000-0 0  9998
2 41882   2.1430  80.9986 0007849 138.6600 195.6571  1.00277619 34214
1 41882U 16077A   26097.66185389 -.00000354  00000-0  00000-0 0  9997
2 41882   2.1439  80.9942 0007827 138.5001 338.4069  1.00277455 34223
1 41882U 16077A   26097.85916230 -.00000354  00000-0  00000+0 0  9994
2 41882   2.1444  80.9913 0007829 138.5064  49.6331  1.00277367 34223
1 41882U 16077A   26097.85916230 -.00000354  00000-0  00000-0 0  9995
2 41882   2.1444  80.9913 0007829 138.5064  49.6332  1.00277367 34224
1 41882U 16077A   26098.08169892 -.00000354  00000-0  00000+0 0  9994
2 41882   2.1448  80.9892 0007842 138.5858 129.8930  1.00277243 34228
1 41882U 16077A   26098.26518091 -.00000354  00000-0  00000-0 0  9994
2 41882   2.1452  80.9862 0007846 138.5575 196.1622  1.00277141 34222
1 41882U 16077A   26098.55042634 -.00000354  00000-0  00000-0 0  9991
2 41882   2.1459  80.9834 0007833 138.4155 299.2826  1.00277047 34234
1 41882U 16077A   26098.90697100 -.00000354  00000-0  00000-0 0  9994
2 41882   2.1467  80.9781 0007828 138.4842  67.9333  1.00276843 34237
1 41882U 16077A   26099.00114419 -.00000354  00000-0  00000+0 0  9992
2 41882   2.1470  80.9773 0007832 138.5110 101.9042  1.00276798 34231
1 41882U 16077A   26099.00114419 -.00000354  00000-0  00000-0 0  9993
2 41882   2.1470  80.9773 0007832 138.5111 101.9043  1.00276798 34233
1 41882U 16077A   26099.61999964 -.00000354  00000-0  00000-0 0  9996
2 41882   2.1484  80.9696 0007826 138.4417 325.3903  1.00276481 34240
1 41882U 16077A   26099.83394677 -.00000354  00000-0  00000+0 0  9999
2 41882   2.1489  80.9684 0007817 138.4017  42.6669  1.00276357 34248
1 41882U 16077A   26099.90526249 -.00000354  00000-0  00000-0 0  9990
2 41882   2.1491  80.9678 0007815 138.4372  68.3773  1.00276328 34245
1 41882U 16077A   26099.97659515 -.00000354  00000-0  00000+0 0  9999
2 41882   2.1493  80.9671 0007820 138.4226  94.1439  1.00276293 34241
1 41882U 16077A   26099.97659515 -.00000354  00000-0  00000-0 0  9990
2 41882   2.1493  80.9671 0007820 138.4226  94.1439  1.00276293 34241
1 41882U 16077A   26100.47564697 -.00000354  00000-0  00000+0 0  9993
2 41882   2.1505  80.9606 0007824 138.4391 274.2923  1.00276024 34252
1 41882U 16077A   26100.97480147 -.00000354  00000-0  00000+0 0  9995
2 41882   2.1516  80.9538 0007808 138.3887  94.5445  1.00275744 34259
1 41882U 16077A   26100.97480147 -.00000354  00000-0  00000-0 0  9996
2 41882   2.1516  80.9538 0007808 138.3887  94.5445  1.00275744 34259
1 41882U 16077A   26101.54521749 -.00000353  00000-0  00000+0 0  9992
2 41882   2.1530  80.9469 0007821 138.4275 300.4323  1.00275410 34260
1 41882U 16077A   26101.85530553 -.00000353  00000-0  00000+0 0  9999
2 41882   2.1537  80.9425 0007808 138.3353  52.4702  1.00275217 34260
1 41882U 16077A   26101.85530553 -.00000353  00000-0  00000-0 0  9990
2 41882   2.1537  80.9425 0007808 138.3351  52.4703  1.00275217 34269
1 41882U 16077A   26101.97307013 -.00000353  00000-0  00000+0 0  9995
2 41882   2.1540  80.9411 0007801 138.3503  94.9692  1.00275154 34268
1 41882U 16077A   26102.25803125 -.00000353  00000-0  00000-0 0  9993
2 41882   2.1547  80.9375 0007820 138.3947 197.7988  1.00274991 34265
1 41882U 16077A   26102.54342122 -.00000352  00000-0  00000+0 0  9998
2 41882   2.1554  80.9341 0007825 138.3915 300.8299  1.00274801 34279
1 41882U 16077A   26102.86572381 -.00000352  00000-0  00000+0 0  9995
2 41882   2.1562  80.9302 0007815 138.2746  57.3006  1.00274606 34278
1 41882U 16077A   26102.97124667 -.00000352  00000-0  00000+0 0  9997
2 41882   2.1565  80.9290 0007812 138.2638  95.4058  1.00274541 34272
1 41882U 16077A   26102.97124667 -.00000352  00000-0  00000-0 0  9998
2 41882   2.1565  80.9290 0007812 138.2638  95.4058  1.00274541 34272
1 41882U 16077A   26103.25638122 -.00000352  00000-0  00000-0 0  9996
2 41882   2.1572  80.9256 0007835 138.3578 198.2476  1.00274375 34272
1 41882U 16077A   26103.96951900 -.00000351  00000-0  00000+0 0  9994
2 41882   2.1590  80.9184 0007844 138.2269  95.8235  1.00273889 34283
1 41882U 16077A   26103.96951900 -.00000351  00000-0  00000-0 0  9995
2 41882   2.1590  80.9184 0007844 138.2270  95.8233  1.00273888 34282
1 41882U 16077A   26103.96951900 -.00000351  00000-0  00000-0 0  9995
2 41882   2.1590  80.9184 0007844 138.2269  95.8235  1.00273889 34283
1 41882U 16077A   26104.80322605 -.00000349  00000-0  00000+0 0  9999
2 41882   2.1614  80.9119 0008053 139.2737  35.7405  1.00272921 34291
1 41882U 16077A   26104.89640703 -.00000349  00000-0  00000+0 0  9990
2 41882   2.1614  80.9099 0007896 138.2643  70.3928  1.00273245 34292
1 41882U 16077A   26104.89640703 -.00000349  00000-0  00000-0 0  9991
2 41882   2.1614  80.9099 0007896 138.2643  70.3928  1.00273245 34292
1 41882U 16077A   26105.46681176 -.00000349  00000-0  00000+0 0  9993
2 41882   2.1627  80.9100 0008030 139.4671 275.0971  1.00271931 34308
1 41882U 16077A   26105.53805169 -.00000349  00000-0  00000+0 0  9991
2 41882   2.1626  80.9105 0007916 138.8881 301.3953  1.00272367 34307
1 41882U 16077A   26105.67601903 -.00000349  00000-0  00000-0 0  9997
2 41882   2.1630  80.9103 0007951 138.9092 351.1795  1.00272531 34304
1 41882U 16077A   26105.82322632 -.00000348  00000-0  00000+0 0  9991
2 41882   2.1634  80.9116 0007976 138.9004  44.3275  1.00272669 34308
1 41882U 16077A   26105.96588880 -.00000348  00000-0  00000-0 0  9996
2 41882   2.1638  80.9104 0007992 138.9186  95.8099  1.00272576 34300
1 41882U 16077A   26106.25110997 -.00000348  00000-0  00000-0 0  9999
2 41882   2.1645  80.9068 0008006 139.0555 198.6383  1.00272439 34302
1 41882U 16077A   26106.67895958 -.00000348  00000-0  00000+0 0  9991
2 41882   2.1656  80.9022 0008030 138.8825 353.2627  1.00272050 34318
1 41882U 16077A   26106.82153175 -.00000348  00000-0  00000+0 0  9996
2 41882   2.1660  80.9012 0008039 138.8533  44.7596  1.00271984 34319
1 41882U 16077A   26106.96410123 -.00000348  00000-0  00000-0 0  9991
2 41882   2.1663  80.8997 0008061 138.9034  96.1766  1.00271885 34315
1 41882U 16077A   26107.24931949 -.00000348  00000-0  00000-0 0  9997
2 41882   2.1671  80.8965 0008072 139.0902 198.9531  1.00271715 34310
1 41882U 16077A   26107.39188631 -.00000349  00000-0  00000-0 0  9996
2 41882   2.1674  80.8946 0008080 139.1304 250.3791  1.00271617 34321
1 41882U 16077A   26108.74663595 -.00000351  00000-0  00000+0 0  9995
2 41882   2.1722  80.8749 0008200 140.6328  17.9356  1.00270567 34331
1 41882U 16077A   26108.90701741 -.00000352  00000-0  00000+0 0  9990
2 41882   2.1714  80.8748 0008197 140.0504  76.4139  1.00270588 34338
1 41882U 16077A   26108.98622856 -.00000352  00000-0  00000+0 0  9997
2 41882   2.1717  80.8736 0008206 140.0706 104.9887  1.00270514 34339
